OBJECT_NAME,OBJECT_ID,EPOCH,MEAN_MOTION,ECCENTRICITY,INCLINATION,RA_OF_ASC_NODE,ARG_OF_PERICENTER,MEAN_ANOMALY,EPHEMERIS_TYPE,CLASSIFICATION_TYPE,NORAD_CAT_ID,ELEMENT_SET_NO,REV_AT_EPOCH,BSTAR,MEAN_MOTION_DOT,MEAN_MOTION_DDOT
INTELSAT 21 (IS-21),2012-045A,2026-06-09T11:21:01.340352,1.00267497,.00017059,0.0247,280.5498,177.4937,272.0574,0,U,38749,999,5044,0,-.268E-5,0
INTELSAT 23 (IS-23),2012-057A,2026-06-09T04:19:38.532576,1.00274773,.00004673,0.0104,345.9313,117.0400,166.5175,0,U,38867,999,4987,0,-.268E-5,0
FM-6,2013-058A,2026-06-08T15:06:37.024416,1.00255605,.00027713,0.0107,82.6412,69.5183,215.1325,0,U,39360,999,4598,0,.3E-7,0
INTELSAT 30 (IS-30),2014-062A,2026-06-09T11:01:24.516192,1.00267702,.00008753,0.0210,37.4356,356.8023,293.8423,0,U,40271,999,671,0,-.133E-5,0
DIRECTV 14,2014-078B,2026-06-09T01:17:09.208320,1.00271044,.00002356,0.0091,1.3268,206.1301,330.0282,0,U,40333,999,4196,0,-.109E-5,0
DIRECTV 15,2015-026A,2026-06-09T00:52:13.105056,1.00272723,.00005417,0.0035,71.5412,190.7091,265.3619,0,U,40663,999,4038,0,-.86E-6,0
SKY MEXICO-1,2015-026B,2026-06-09T09:56:01.398912,1.00271354,.00021478,0.0131,295.8908,161.2945,230.8166,0,U,40664,999,4037,0,-.217E-5,0
INTELSAT 34 (IS-34),2015-039A,2026-06-09T11:21:46.268352,1.00270548,.000039,0.0125,316.3952,26.6951,29.7232,0,U,40874,999,3955,0,-.268E-5,0
INTELSAT 31 (IS-31),2016-035A,2026-06-09T11:01:24.568032,1.00270432,.00009208,0.0197,262.6352,341.1411,84.3698,0,U,41581,999,3660,0,-.134E-5,0
INTELSAT 36 (IS-36),2016-053A,2026-06-09T11:57:11.723040,1.00270489,.0001892,0.0109,349.9262,345.6450,170.0964,0,U,41747,999,3588,0,-.7E-7,0
INTELSAT 32E (IS-32E),2017-007B,2026-06-09T02:04:35.551776,1.00274840,.0000672,0.0023,348.0424,336.8096,280.6015,0,U,41945,999,3414,0,-.252E-5,0
INTELSAT 35E (IS-35E),2017-041A,2026-06-09T11:27:45.694080,1.00271510,.00016335,0.0189,7.5995,70.2855,317.4382,0,U,42818,999,3273,0,-.221E-5,0
INTELSAT 37E (IS-37E),2017-059A,2026-06-09T09:49:48.837792,1.00269921,.00022999,0.0190,10.9566,91.6448,284.6437,0,U,42950,999,3198,0,-.124E-5,0
AZERSPACE 2 (IS-38),2018-074A,2026-06-09T11:50:27.370176,1.00271476,.00013216,0.0130,325.5302,113.5202,41.5436,0,U,43632,999,2837,0,.154E-5,0
HORIZONS-3E,2018-074B,2026-06-09T03:52:26.934240,1.00270197,.0000957,0.0093,158.1609,124.5481,201.9406,0,U,43633,999,2826,0,-.14E-6,0
AT&T T-16,2019-034A,2026-06-09T11:04:33.551616,1.00268708,.00006328,0.0237,67.0112,188.4482,67.6581,0,U,44333,999,2555,0,-.98E-6,0
INTELSAT 39 (IS-39),2019-049B,2026-06-09T00:09:47.202048,1.00266551,.00011559,0.0162,310.4453,11.0959,0.2561,0,U,44476,999,2504,0,.51E-6,0
GALAXY 30 (G-30),2020-056C,2026-06-09T11:18:50.529888,1.00273347,.00021554,0.0180,315.5417,118.8531,228.1647,0,U,46114,999,2121,0,.54E-6,0
GALAXY 33 (G-33),2022-128A,2026-06-09T11:22:49.971936,1.00271439,.00018368,0.0120,310.7698,134.5963,210.2085,0,U,54026,999,1366,0,.96E-6,0
GALAXY 34 (G-34),2022-128B,2026-06-08T23:02:06.902304,1.00274719,.00018617,0.0154,329.7482,136.9348,7.2031,0,U,54027,999,1383,0,.75E-6,0
GALAXY 31 (G-31),2022-153A,2026-06-09T11:15:45.544896,1.00272101,.00012757,0.0130,270.6969,166.7987,228.2957,0,U,54243,999,705,0,.3E-6,0
GALAXY 32 (G-32),2022-153B,2026-06-09T07:46:18.681312,1.00270919,.00021646,0.0091,331.9838,65.0548,246.2445,0,U,54244,999,1306,0,-.157E-5,0
GALAXY 35 (G-35),2022-170A,2026-06-09T11:00:24.946848,1.00271145,.00020317,0.0337,106.4075,335.1959,248.2408,0,U,54741,999,1281,0,-.145E-5,0
GALAXY 36 (G-36),2022-170B,2026-06-09T09:29:35.775744,1.00270817,.0002652,0.0150,151.7517,291.6745,227.7498,0,U,54742,999,1269,0,-.168E-5,0
GALAXY 37 (G-37),2023-112A,2026-06-09T13:46:50.952576,1.00271812,.00018892,0.0177,353.8406,86.5458,257.2803,0,U,57493,999,1046,0,.65E-6,0
